H1 CPF  1  HTS 2022  6 14 12  6651 larets           NONE
H2  0304206 5557    27944 2022 06 14  0  0  0 2022 06 19  0  0  0   180 1 1  0 0 0
H5  0.0560 
H9 
10 0 59745  34920.00000  0   -1237263.491    -320844.223    6943682.190
10 0 59745  35100.00000  0    -683893.120     923923.898    6966702.586
10 0 59745  35280.00000  0     -73711.644    2119953.263    6735540.844
10 0 59745  35460.00000  0     569315.181    3222736.653    6258611.343
10 0 59745  35640.00000  0    1218906.144    4191760.599    5553224.766
10 0 59745  35820.00000  0    1847520.990    4991999.236    4644999.567
10 0 59745  36000.00000  0    2427510.760    5595207.787    3566978.658
10 0 59745  36180.00000  0    2932319.160    5980963.399    2358470.369
10 0 59745  36360.00000  0    3337682.846    6137413.360    1063633.093
10 0 59745  36540.00000  0    3622767.704    6061672.142    -270152.118
10 0 59745  36720.00000  0    3771182.655    5759848.267   -1594046.049
10 0 59745  36900.00000  0    3771820.181    5246697.270   -2859580.613
10 0 59745  37080.00000  0    3619476.608    4544917.599   -4020473.772
10 0 59745  37260.00000  0    3315217.080    3684125.281   -5034346.244
10 0 59745  37440.00000  0    2866472.856    2699570.291   -5864266.491
10 0 59745  37620.00000  0    2286870.586    1630658.772   -6480069.913
10 0 59745  37800.00000  0    1595805.188     519353.578   -6859409.374
10 0 59745  37980.00000  0     817780.926    -591474.781   -6988516.645
10 0 59745  38160.00000  0     -18459.302   -1659690.060   -6862669.925
10 0 59745  38340.00000  0    -880986.325   -2645469.780   -6486354.411
10 0 59745  38520.00000  0   -1735887.081   -3512777.761   -5873125.031
10 0 59745  38700.00000  0   -2548582.731   -4230688.110   -5045162.045
10 0 59745  38880.00000  0   -3285221.816   -4774517.035   -4032527.333
10 0 59745  39060.00000  0   -3914099.859   -5126718.172   -2872121.182
10 0 59745  39240.00000  0   -4407040.041   -5277495.432   -1606364.691
10 0 59745  39420.00000  0   -4740670.801   -5225100.850    -281646.251
10 0 59745  39600.00000  0   -4897530.050   -4975795.282    1053412.032
10 0 59745  39780.00000  0   -4866933.472   -4543467.176    2349794.758
10 0 59745  39960.00000  0   -4645555.570   -3948923.575    3559952.833
10 0 59745  40140.00000  0   -4237695.253   -3218896.544    4639590.902
10 0 59745  40320.00000  0   -3655215.767   -2384821.437    5549305.911
10 0 59745  40500.00000  0   -2917169.954   -1481457.285    6256007.057
10 0 59745  40680.00000  0   -2049138.948    -545421.605    6734081.470
10 0 59745  40860.00000  0   -1082309.256     386303.694    6966271.959
10 0 59745  41040.00000  0     -52334.193    1277824.675    6944244.830
10 0 59745  41220.00000  0    1001976.404    2095701.701    6668858.619
10 0 59745  41400.00000  0    2040105.275    2810191.347    6150126.294
10 0 59745  41580.00000  0    3021368.774    3396321.535    5406873.800
10 0 59745  41760.00000  0    3906505.444    3834773.176    4466101.298
10 0 59745  41940.00000  0    4659253.724    4112534.184    3362048.483
10 0 59745  42120.00000  0    5247862.512    4223303.223    2134988.959
10 0 59745  42300.00000  0    5646461.491    4167615.367     829771.844
10 0 59745  42480.00000  0    5836220.031    3952679.853    -505830.782
10 0 59745  42660.00000  0    5806229.858    3591933.311   -1822909.354
10 0 59745  42840.00000  0    5554061.987    3104329.251   -3073251.062
10 0 59745  43020.00000  0    5085970.742    2513403.633   -4211140.527
10 0 59745  43200.00000  0    4416738.805    1846166.813   -5195052.376
10 0 59745  43380.00000  0    3569169.320    1131876.220   -5989160.895
10 0 59745  43560.00000  0    2573262.688     400759.199   -6564611.553
10 0 59745  43740.00000  0    1465117.951    -317256.291   -6900522.476
10 0 59745  43920.00000  0     285610.480    -993752.241   -6984696.272
10 0 59745  44100.00000  0    -921112.659   -1602930.967   -6814033.213
10 0 59745  44280.00000  0   -2109267.543   -2122586.528   -6394640.257
10 0 59745  44460.00000  0   -3233152.587   -2534912.469   -5741637.137
10 0 59745  44640.00000  0   -4248898.358   -2827119.784   -4878659.805
10 0 59745  44820.00000  0   -5116199.164   -2991847.674   -3837063.343
10 0 59745  45000.00000  0   -5799954.062   -3027344.600   -2654828.048
10 0 59745  45180.00000  0   -6271744.145   -2937408.052   -1375196.470
10 0 59745  45360.00000  0   -6511069.400   -2731080.951     -45082.386
10 0 59745  45540.00000  0   -6506276.575   -2422115.345    1286686.676
10 0 59745  45720.00000  0   -6255123.143   -2028228.608    2571219.268
10 0 59745  45900.00000  0   -5764938.354   -1570190.779    3761413.430
10 0 59745  46080.00000  0   -5052380.709   -1070794.054    4813725.067
10 0 59745  46260.00000  0   -4142805.496    -553760.227    5689771.606
10 0 59745  46440.00000  0   -3069295.238     -42646.590    6357708.641
10 0 59745  46620.00000  0   -1871397.795     440201.061    6793346.191
10 0 59745  46800.00000  0    -593629.710     874599.156    6980970.088
10 0 59745  46980.00000  0     716188.548    1243348.294    6913859.554
10 0 59745  47160.00000  0    2008709.805    1532901.279    6594500.296
10 0 59745  47340.00000  0    3234899.276    1733855.923    6034493.427
10 0 59745  47520.00000  0    4347882.326    1841256.832    5254162.596
10 0 59745  47700.00000  0    5304740.967    1854698.436    4281860.940
10 0 59745  47880.00000  0    6068199.811    1778228.043    3152991.826
10 0 59745  48060.00000  0    6608129.598    1620047.263    1908749.095
10 0 59745  48240.00000  0    6902792.665    1392023.040     594623.735
10 0 59745  48420.00000  0    6939767.649    1109030.609    -741277.495
10 0 59745  48600.00000  0    6716497.970     788159.838   -2050031.865
10 0 59745  48780.00000  0    6240429.831     447822.075   -3283735.788
10 0 59745  48960.00000  0    5528737.124     106808.476   -4397294.149
10 0 59745  49140.00000  0    4607646.321    -216649.643   -5350085.573
10 0 59745  49320.00000  0    3511404.771    -505770.636   -6107429.941
10 0 59745  49500.00000  0    2280954.452    -746020.876   -6641816.188
10 0 59745  49680.00000  0     962367.194    -925787.780   -6933854.376
10 0 59745  49860.00000  0    -394888.521   -1036901.581   -6972934.638
10 0 59745  50040.00000  0   -1739792.624   -1074986.719   -6757586.951
10 0 59745  50220.00000  0   -3021671.894   -1039632.813   -6295537.184
10 0 59745  50400.00000  0   -4192093.048    -934379.176   -5603456.335
10 0 59745  50580.00000  0   -5206697.314    -766514.706   -4706412.301
10 0 59745  50760.00000  0   -6026917.794    -546697.941   -3637018.145
10 0 59745  50940.00000  0   -6621507.952    -288410.563   -2434291.027
10 0 59745  51120.00000  0   -6967809.403      -7264.010   -1142246.090
10 0 59745  51300.00000  0   -7052691.180     279809.436     191730.137
10 0 59745  51480.00000  0   -6873094.317     555441.770    1518664.814
10 0 59745  51660.00000  0   -6436154.065     802741.131    2789851.804
10 0 59745  51840.00000  0   -5758893.545    1006181.520    3958695.601
10 0 59745  52020.00000  0   -4867501.143    1152423.018    4982456.119
10 0 59745  52200.00000  0   -3796242.650    1231019.288    5823814.453
10 0 59745  52380.00000  0   -2586075.794    1234979.307    6452206.427
10 0 59745  52560.00000  0   -1283032.283    1161160.945    6844889.883
10 0 59745  52740.00000  0      63563.879    1010481.888    6987712.366
10 0 59745  52920.00000  0    1402962.138     787940.387    6875572.014
10 0 59745  53100.00000  0    2684878.225     502447.849    6512577.637
10 0 59745  53280.00000  0    3861361.954     166478.583    5911906.828
10 0 59745  53460.00000  0    4888586.274    -204453.965    5095360.557
10 0 59745  53640.00000  0    5728496.251    -592478.044    4092617.865
10 0 59745  53820.00000  0    6350260.448    -978176.535    2940203.503
10 0 59745  54000.00000  0    6731463.087   -1341499.002    1680186.533
10 0 59745  54180.00000  0    6858971.931   -1662730.828     358647.916
10 0 59745  54360.00000  0    6729438.182   -1923475.169    -976025.010
10 0 59745  54540.00000  0    6349391.782   -2107594.145   -2274952.594
10 0 59745  54720.00000  0    5734922.878   -2202057.815   -3490598.244
10 0 59745  54900.00000  0    4910969.146   -2197656.538   -4578539.871
10 0 59745  55080.00000  0    3910255.242   -2089541.773   -5499103.048
10 0 59745  55260.00000  0    2771937.785   -1877571.677   -6218792.539
10 0 59745  55440.00000  0    1540031.318   -1566446.401   -6711470.638
10 0 59745  55620.00000  0     261686.591   -1165629.795   -6959261.523
10 0 59745  55800.00000  0   -1014615.154    -689063.981   -6953157.152
10 0 59745  55980.00000  0   -2240885.140    -154687.640   -6693322.386
10 0 59745  56160.00000  0   -3371414.073     416230.236   -6189095.095
10 0 59745  56340.00000  0   -4364466.168     999920.109   -5458683.207
10 0 59745  56520.00000  0   -5183836.402    1571080.240   -4528561.990
10 0 59745  56700.00000  0   -5800215.741    2103954.779   -3432570.949
10 0 59745  56880.00000  0   -6192302.232    2573478.096   -2210720.976
10 0 59745  57060.00000  0   -6347604.427    2956430.561    -907746.231
10 0 59745  57240.00000  0   -6262891.036    3232551.738     428553.877
10 0 59745  57420.00000  0   -5944252.131    3385548.860    1749117.393
10 0 59745  57600.00000  0   -5406759.762    3403944.341    3005481.322
10 0 59745  57780.00000  0   -4673750.975    3281716.683    4151611.549
10 0 59745  57960.00000  0   -3775776.138    3018700.926    5145620.120
10 0 59745  58140.00000  0   -2749274.543    2620733.315    5951294.312
10 0 59745  58320.00000  0   -1635048.308    2099541.260    6539388.031
10 0 59745  58500.00000  0    -476605.698    1472383.716    6888633.428
10 0 59745  58680.00000  0     681546.059     761462.714    6986451.397
10 0 59745  58860.00000  0    1795597.632      -6868.704    6829362.441
10 0 59745  59040.00000  0    2824074.929    -803076.576    6423094.826
10 0 59745  59220.00000  0    3729369.193   -1595568.169    5782390.545
99
